STARLINK-30617          
1 58104U 23161H   26068.53665570  .00001422  00000+0  60161-4 0  9996
2 58104  53.1596 166.3669 0001146  74.5427 285.5701 15.30184358134393
PHISAT 2                
1 60470U 24149C   26068.78834181  .00008925  00000+0  31421-3 0  9996
2 60470  97.3806 148.6498 0001175 168.6230 191.5037 15.29548631 86792
